STARLETTE               
1 07646U 75010A   22284.21395639 -.00000137  00000+0  31151-5 0  9999
2 07646  49.8268  13.3064 0205735 299.9847  58.0768 13.82313622408477
LAGEOS 1                
1 08820U 76039A   22283.64120258  .00000006  00000+0  00000+0 0  9992
2 08820 109.8520  78.4478 0045150 230.3026 124.8624  6.38664885827204
AJISAI (EGS)            
1 16908U 86061A   22284.56555567 -.00000075  00000+0  15752-3 0  9992
2 16908  50.0104 322.0114 0011292 358.0191 153.3671 12.44497447313303
COSMOS 1989 (ETALON 1)  
1 19751U 89001C   22283.74517125  .00000051  00000+0  00000+0 0  9994
2 19751  64.3319 118.4195 0023844 213.4401 152.3316  2.13156296262697
COSMOS 2024 (ETALON 2)  
1 20026U 89039C   22284.05142937 -.00000081  00000+0  00000+0 0  9996
2 20026  65.5241 356.4686 0018633 218.6492 311.2341  2.13204314259816
LAGEOS 2                
1 22195U 92070B   22283.08973795 -.00000009  00000+0  00000+0 0  9990
2 22195  52.6769  37.3427 0138356 318.9430 188.5296  6.47293474708275
STELLA                  
1 22824U 93061B   22283.87253742 -.00000020  00000+0  10692-4 0  9996
2 22824  98.9589 307.6803 0006477 172.3465   1.8964 14.27393781512840
LARES                   
1 38077U 12006A   22284.15623809 -.00000015  00000+0  14239-3 0  9994
2 38077  69.4917  69.6700 0011133 238.3581 121.6361 12.54931620488429
